{
  "type": "FeatureCollection",
  "features": [
    {
      "type": "Feature",
      "properties": {
        "name": "India"
      },
      "geometry": {
        "type": "Polygon",
        "coordinates": [
          [
            [77.8374, 35.4940],
            [78.9122, 34.3219],
            [78.8110, 33.5062],
            [79.2089, 32.9944],
            [79.1761, 32.4836],
            [78.4580, 32.6181],
            [78.0718, 31.9659],
            [77.8374, 31.0233],
            [77.3977, 30.3332],
            [76.0284, 29.1795],
            [75.1413, 29.3999],
            [74.4215, 28.8404],
            [73.5341, 28.4987],
            [73.1199, 27.9987],
            [72.8302, 27.0059],
            [71.6693, 27.1359],
            [70.8047, 26.8145],
            [70.3770, 26.3351],
            [69.8760, 25.7850],
            [70.1356, 25.2151],
            [70.2828, 24.3565],
            [68.8428, 24.3591],
            [68.1766, 23.6920],
            [67.4430, 23.9448],
            [67.1454, 24.6634],
            [66.3728, 25.4251],
            [64.5300, 25.2370],
            [62.9057, 25.2184],
            [61.4970, 25.0782],
            [61.8742, 26.2396],
            [63.1965, 26.7565],
            [63.1679, 27.2170],
            [62.7554, 27.3789],
            [62.7278, 28.2596],
            [61.7769, 28.6993],
            [61.3693, 29.3033],
            [60.8742, 29.8292],
            [62.5499, 29.3182],
            [63.5503, 29.4683],
            [64.1480, 29.3406],
            [64.3504, 29.5600],
            [65.0468, 29.4722],
            [66.3461, 29.8879],
            [66.3815, 30.7394],
            [66.9389, 31.3049],
            [67.6834, 31.3032],
            [67.7927, 31.5829],
            [68.5569, 31.7126],
            [68.9267, 31.6201],
            [69.3177, 31.9014],
            [69.9305, 32.5019],
            [70.3770, 32.9944],
            [69.9305, 33.1058],
            [70.2828, 33.3583],
            [69.9305, 34.0201],
            [70.8047, 33.9889],
            [71.1155, 34.6894],
            [71.1155, 35.1532],
            [71.6132, 34.5815],
            [71.4989, 34.0201],
            [72.2307, 33.9889],
            [72.6349, 34.0836],
            [73.0305, 33.9889],
            [73.5341, 34.0201],
            [73.5784, 34.3083],
            [74.1016, 34.3706],
            [74.4215, 34.7717],
            [75.1413, 34.8033],
            [74.5752, 35.3083],
            [74.8691, 35.4940],
            [75.3570, 35.6088],
            [76.1928, 35.8984],
            [76.8206, 35.8984],
            [77.3977, 35.6088],
            [77.8374, 35.4940]
          ]
        ]
      }
    }
  ]
}